OBJECT_NAME,OBJECT_ID,EPOCH,MEAN_MOTION,ECCENTRICITY,INCLINATION,RA_OF_ASC_NODE,ARG_OF_PERICENTER,MEAN_ANOMALY,EPHEMERIS_TYPE,CLASSIFICATION_TYPE,NORAD_CAT_ID,ELEMENT_SET_NO,REV_AT_EPOCH,BSTAR,MEAN_MOTION_DOT,MEAN_MOTION_DDOT
GAOFEN-11 01,2018-063A,2026-07-21T04:45:44.746848,15.56185864,.0003969,97.1268,268.9995,177.6771,182.4503,0,U,43585,999,44563,.14834916E-3,.10291E-3,0
ICESAT-2,2018-070A,2026-07-21T06:28:49.077408,15.28241776,.00048865,92.0084,300.1900,44.9965,315.1680,0,U,43613,999,43766,.25043528E-3,.6891E-4,0
KAZSTSAT,2018-099AB,2026-07-21T01:17:33.853056,14.99959455,.00071804,97.4307,232.4574,316.1580,43.9073,0,U,43783,999,41638,.14244689E-4,.121E-5,0
SAUDISAT 5A,2018-102A,2026-07-21T06:41:31.262784,15.28358858,.00098254,97.3045,263.2061,24.0137,336.1559,0,U,43831,999,42088,.14440178E-3,.3919E-4,0
SAUDISAT 5B,2018-102C,2026-07-21T07:00:40.851936,15.28600521,.00106178,97.3154,266.3506,25.2707,334.9050,0,U,43833,999,42100,.13650048E-3,.3728E-4,0
GAOFEN-10R,2019-066A,2026-07-21T07:02:41.909568,14.83065750,.00065404,98.0512,156.1242,36.4717,323.6940,0,U,44622,999,36743,.99342028E-4,.754E-5,0
CARTOSAT-3,2019-081A,2026-07-21T06:35:40.992864,15.19208241,.00125019,97.4282,263.5893,40.4858,319.7304,0,U,44804,999,36864,.10226043E-3,.2088E-4,0
GAOFEN-12 01,2019-082A,2026-07-21T06:41:36.515040,14.80482593,.0000693,97.8113,207.7604,67.7865,292.3421,0,U,44819,999,35913,.39611399E-4,.252E-5,0
CSG-1,2019-092A,2026-07-21T06:42:02.462688,14.82159842,.00014617,97.8900,25.3899,94.4436,265.6944,0,U,44873,999,35652,.35832646E-4,.233E-5,0
NEMO-HD,2020-061F,2026-07-21T06:19:49.204416,15.45221835,.0001045,97.1897,263.8837,114.2198,245.9161,0,U,46277,999,32724,.18535127E-3,.8717E-4,0
SENTINEL-6A,2020-086A,2026-07-20T23:17:25.813824,12.80930249,.00077854,66.0410,64.8847,269.6488,90.3636,0,U,46984,999,26465,-.7096777E-5,-.63E-6,0
CAS500-1,2021-022A,2026-07-21T07:00:18.501984,15.20112545,.00057376,97.3853,96.8478,149.3456,210.8116,0,U,47932,999,29594,.11486646E-3,.2415E-4,0
GAOFEN-12 02,2021-026A,2026-07-21T07:02:49.389216,14.80319061,.00061271,97.9939,200.3378,116.4056,243.7786,0,U,48079,999,28680,.38871765E-4,.243E-5,0
PLEIADES NEO 3,2021-034A,2026-07-21T06:56:55.351392,14.81661965,.00013467,97.8935,276.5657,100.2988,259.8377,0,U,48268,999,28270,.59863789E-4,.419E-5,0
PLEIADES NEO 4,2021-073E,2026-07-21T07:45:30.253248,14.81674830,.00013897,97.8934,276.5950,98.0668,262.0702,0,U,49070,999,26642,.68858756E-4,.49E-5,0
LANDSAT 9,2021-088A,2026-07-21T04:30:57.302208,14.57098343,.00010739,98.2264,271.9512,92.7639,267.3683,0,U,49260,999,25595,.58164762E-4,.217E-5,0
CSG-2,2022-008A,2026-07-21T07:30:36.668160,14.82146182,.000152,97.8903,25.4167,89.4155,270.7232,0,U,51444,999,24164,-.53009056E-4,-.474E-5,0
GAOFEN-12 03,2022-069A,2026-07-21T06:16:53.287104,14.80083006,.00023717,97.8228,89.2657,66.4368,293.7093,0,U,52912,999,21965,.12510555E-3,.897E-5,0
SWOT,2022-173A,2026-07-21T05:09:20.109312,14.00172598,.00002184,77.6117,349.3716,68.0958,292.0216,0,U,54754,999,18391,.26020678E-4,.36E-6,0
GAOFEN-12 04,2023-123A,2026-07-21T06:47:00.799296,14.79782545,.00031835,97.9096,119.7890,37.1791,322.9640,0,U,57654,999,15767,.88856385E-4,.617E-5,0
PARS 1,2024-039Q,2026-07-21T07:02:50.599680,15.46375215,.00089778,97.4847,184.3091,5.9335,354.2019,0,U,59065,999,13391,.18161407E-3,.8892E-4,0
RESURS-P 4,2024-061A,2026-07-21T06:54:49.233312,15.32303587,.00031889,97.2761,149.5995,80.3438,279.8164,0,U,59371,999,12898,.69730693E-4,.2099E-4,0
LEGION 1,2024-081A,2026-07-21T04:51:06.316416,15.16869375,.00078677,97.5006,279.6986,244.7940,115.2478,0,U,59625,999,12269,.12357315E-3,.2366E-4,0
LEGION 2,2024-081B,2026-07-21T05:34:59.206080,15.16848228,.00107022,97.5003,279.8256,210.3787,149.6827,0,U,59626,999,12270,.14617015E-3,.2811E-4,0
ALOS-4 (DAICHI-4),2024-123A,2026-07-21T05:53:29.623200,14.79469998,.00015652,97.9221,298.9325,99.0341,261.1048,0,U,60182,999,11091,.1224093E-3,.863E-5,0
LEGION 3,2024-146A,2026-07-21T04:51:32.380704,15.15677275,.00076054,45.0013,208.1884,7.1906,352.9081,0,U,60452,999,10718,.10745153E-3,.1816E-4,0
LEGION 4,2024-146B,2026-07-21T06:25:53.967936,15.15708574,.00093841,45.0021,299.7043,151.0769,209.0632,0,U,60453,999,10604,.16570916E-3,.2949E-4,0
SENTINEL-2C,2024-157A,2026-07-21T03:48:21.222144,14.30816822,.00010205,98.5679,276.4578,107.4871,252.6423,0,U,60989,999,9784,.36435377E-4,.52E-6,0
IONOSFERA-M 1,2024-199A,2026-07-21T05:33:18.917280,14.22759975,.00020659,98.7127,75.0371,64.0041,296.1349,0,U,61735,999,13254,.30454147E-4,.24E-6,0
