GAOFEN-11 01            
1 43585U 18063A   26202.19843457  .00010291  00000+0  14835-3 0  9992
2 43585  97.1268 268.9995 0003969 177.6771 182.4503 15.56185864445635
ICESAT-2                
1 43613U 18070A   26202.27001247  .00006891  00000+0  25044-3 0  9999
2 43613  92.0084 300.1900 0004886  44.9965 315.1680 15.28241776437661
KAZSTSAT                
1 43783U 18099AB  26202.05386404  .00000121  00000+0  14245-4 0  9997
2 43783  97.4307 232.4574 0007180 316.1580  43.9073 14.99959455416382
SAUDISAT 5A             
1 43831U 18102A   26202.27883406  .00003919  00000+0  14440-3 0  9998
2 43831  97.3045 263.2061 0009825  24.0137 336.1559 15.28358858420887
SAUDISAT 5B             
1 43833U 18102C   26202.29213949  .00003728  00000+0  13650-3 0  9991
2 43833  97.3154 266.3506 0010617  25.2707 334.9050 15.28600521421009
GAOFEN-10R              
1 44622U 19066A   26202.29354062  .00000754  00000+0  99342-4 0  9999
2 44622  98.0512 156.1242 0006540  36.4717 323.6940 14.83065750367438
CARTOSAT-3              
1 44804U 19081A   26202.27478001  .00002088  00000+0  10226-3 0  9991
2 44804  97.4282 263.5893 0012501  40.4858 319.7304 15.19208241368645
GAOFEN-12 01            
1 44819U 19082A   26202.27889485  .00000252  00000+0  39611-4 0  9991
2 44819  97.8113 207.7604 0000693  67.7865 292.3421 14.80482593359138
CSG-1                   
1 44873U 19092A   26202.27919517  .00000233  00000+0  35833-4 0  9993
2 44873  97.8900  25.3899 0001461  94.4436 265.6944 14.82159842356520
NEMO-HD                 
1 46277U 20061F   26202.26376394  .00008717  00000+0  18535-3 0  9994
2 46277  97.1897 263.8837 0001045 114.2198 245.9161 15.45221835327244
SENTINEL-6A             
1 46984U 20086A   26201.97043766 -.00000063  00000+0 -70968-5 0  9995
2 46984  66.0410  64.8847 0007785 269.6488  90.3636 12.80930249264655
CAS500-1                
1 47932U 21022A   26202.29188081  .00002415  00000+0  11487-3 0  9996
2 47932  97.3853  96.8478 0005737 149.3456 210.8116 15.20112545295942
GAOFEN-12 02            
1 48079U 21026A   26202.29362719  .00000243  00000+0  38872-4 0  9990
2 48079  97.9939 200.3378 0006127 116.4056 243.7786 14.80319061286802
PLEIADES NEO 3          
1 48268U 21034A   26202.28952953  .00000419  00000+0  59864-4 0  9992
2 48268  97.8935 276.5657 0001346 100.2988 259.8377 14.81661965282708
PLEIADES NEO 4          
1 49070U 21073E   26202.32326682  .00000490  00000+0  68859-4 0  9999
2 49070  97.8934 276.5950 0001389  98.0668 262.0702 14.81674830266425
LANDSAT 9               
1 49260U 21088A   26202.18816322  .00000217  00000+0  58165-4 0  9991
2 49260  98.2264 271.9512 0001073  92.7639 267.3683 14.57098343255953
CSG-2                   
1 51444U 22008A   26202.31292440 -.00000474  00000+0 -53009-4 0  9994
2 51444  97.8903  25.4167 0001520  89.4155 270.7232 14.82146182241648
GAOFEN-12 03            
1 52912U 22069A   26202.26172786  .00000897  00000+0  12511-3 0  9995
2 52912  97.8228  89.2657 0002371  66.4368 293.7093 14.80083006219656
SWOT                    
1 54754U 22173A   26202.21481608  .00000036  00000+0  26021-4 0  9995
2 54754  77.6117 349.3716 0000218  68.0958 292.0216 14.00172598183917
GAOFEN-12 04            
1 57654U 23123A   26202.28264814  .00000617  00000+0  88856-4 0  9997
2 57654  97.9096 119.7890 0003183  37.1791 322.9640 14.79782545157671
PARS 1                  
1 59065U 24039Q   26202.29364120  .00008892  00000+0  18161-3 0  9998
2 59065  97.4847 184.3091 0008977   5.9335 354.2019 15.46375215133918
RESURS-P 4              
1 59371U 24061A   26202.28806983  .00002099  00000+0  69731-4 0  9993
2 59371  97.2761 149.5995 0003188  80.3438 279.8164 15.32303587128989
LEGION 1                
1 59625U 24081A   26202.20215644  .00002366  00000+0  12357-3 0  9995
2 59625  97.5006 279.6986 0007867 244.7940 115.2478 15.16869375122690
LEGION 2                
1 59626U 24081B   26202.23262970  .00002811  00000+0  14617-3 0  9999
2 59626  97.5003 279.8256 0010702 210.3787 149.6827 15.16848228122705
ALOS-4 (DAICHI-4)       
1 60182U 24123A   26202.24548175  .00000863  00000+0  12241-3 0  9996
2 60182  97.9221 298.9325 0001565  99.0341 261.1048 14.79469998110910
LEGION 3                
1 60452U 24146A   26202.20245811  .00001816  00000+0  10745-3 0  9994
2 60452  45.0013 208.1884 0007605   7.1906 352.9081 15.15677275107185
LEGION 4                
1 60453U 24146B   26202.26798574  .00002949  00000+0  16571-3 0  9991
2 60453  45.0021 299.7043 0009384 151.0769 209.0632 15.15708574106045
SENTINEL-2C             
1 60989U 24157A   26202.15857896  .00000052  00000+0  36435-4 0  9993
2 60989  98.5679 276.4578 0001020 107.4871 252.6423 14.30816822 97845
IONOSFERA-M 1           
1 61735U 24199A   26202.23146895  .00000024  00000+0  30454-4 0  9992
2 61735  98.7127  75.0371 0002065  64.0041 296.1349 14.22759975132549
